[{"OBJECT_NAME":"BEIDOU-3 M19 (C41)","OBJECT_ID":"2019-090A","EPOCH":"2026-03-02T06:18:21.805632","MEAN_MOTION":1.8623122,"ECCENTRICITY":0.00204083,"INCLINATION":56.4657,"RA_OF_ASC_NODE":66.3234,"ARG_OF_PERICENTER":291.3317,"MEAN_ANOMALY":195.2232,"EPHEMERIS_TYPE":0,"CLASSIFICATION_TYPE":"U","NORAD_CAT_ID":44864,"ELEMENT_SET_NO":999,"REV_AT_EPOCH":4224,"BSTAR":0,"MEAN_MOTION_DOT":-8.0e-8,"MEAN_MOTION_DDOT":0},{"OBJECT_NAME":"BEIDOU-3 M20 (C42)","OBJECT_ID":"2019-090B","EPOCH":"2026-03-02T01:35:20.364288","MEAN_MOTION":1.86231168,"ECCENTRICITY":0.00178123,"INCLINATION":56.4671,"RA_OF_ASC_NODE":66.3642,"ARG_OF_PERICENTER":302.8548,"MEAN_ANOMALY":141.5369,"EPHEMERIS_TYPE":0,"CLASSIFICATION_TYPE":"U","NORAD_CAT_ID":44865,"ELEMENT_SET_NO":999,"REV_AT_EPOCH":4222,"BSTAR":0,"MEAN_MOTION_DOT":-6.0e-8,"MEAN_MOTION_DDOT":0},{"OBJECT_NAME":"BEIDOU-3 G2 (C60)","OBJECT_ID":"2020-017A","EPOCH":"2026-03-02T21:07:24.751776","MEAN_MOTION":1.00271169,"ECCENTRICITY":0.00027029,"INCLINATION":2.6513,"RA_OF_ASC_NODE":45.5391,"ARG_OF_PERICENTER":300.6479,"MEAN_ANOMALY":211.3441,"EPHEMERIS_TYPE":0,"CLASSIFICATION_TYPE":"U","NORAD_CAT_ID":45344,"ELEMENT_SET_NO":999,"REV_AT_EPOCH":2219,"BSTAR":0,"MEAN_MOTION_DOT":-1.55e-6,"MEAN_MOTION_DDOT":0},{"OBJECT_NAME":"COSMOS 2545 (760)","OBJECT_ID":"2020-018A","EPOCH":"2026-03-02T05:35:57.863904","MEAN_MOTION":2.13102173,"ECCENTRICITY":0.0008335,"INCLINATION":64.419,"RA_OF_ASC_NODE":316.1803,"ARG_OF_PERICENTER":250.8861,"MEAN_ANOMALY":109.0821,"EPHEMERIS_TYPE":0,"CLASSIFICATION_TYPE":"U","NORAD_CAT_ID":45358,"ELEMENT_SET_NO":999,"REV_AT_EPOCH":4638,"BSTAR":0,"MEAN_MOTION_DOT":-4.5e-7,"MEAN_MOTION_DDOT":0},{"OBJECT_NAME":"BEIDOU-3 G3 (C61)","OBJECT_ID":"2020-040A","EPOCH":"2026-03-02T15:51:12.788352","MEAN_MOTION":1.00276174,"ECCENTRICITY":0.0004209,"INCLINATION":2.1853,"RA_OF_ASC_NODE":67.1048,"ARG_OF_PERICENTER":314.8569,"MEAN_ANOMALY":126.7245,"EPHEMERIS_TYPE":0,"CLASSIFICATION_TYPE":"U","NORAD_CAT_ID":45807,"ELEMENT_SET_NO":999,"REV_AT_EPOCH":2100,"BSTAR":0,"MEAN_MOTION_DOT":-3.69e-6,"MEAN_MOTION_DDOT":0},{"OBJECT_NAME":"GPS BIII-3  (PRN 23)","OBJECT_ID":"2020-041A","EPOCH":"2026-03-02T05:22:22.585728","MEAN_MOTION":2.00560558,"ECCENTRICITY":0.0061351,"INCLINATION":56.6045,"RA_OF_ASC_NODE":33.0935,"ARG_OF_PERICENTER":205.2559,"MEAN_ANOMALY":289.6941,"EPHEMERIS_TYPE":0,"CLASSIFICATION_TYPE":"U","NORAD_CAT_ID":45854,"ELEMENT_SET_NO":999,"REV_AT_EPOCH":4189,"BSTAR":0,"MEAN_MOTION_DOT":-7.3e-7,"MEAN_MOTION_DDOT":0},{"OBJECT_NAME":"GALAXY 30 (WAAS/PRN 135)","OBJECT_ID":"2020-056C","EPOCH":"2026-03-02T16:56:25.250784","MEAN_MOTION":1.00272146,"ECCENTRICITY":0.00022022,"INCLINATION":0.0178,"RA_OF_ASC_NODE":122.3295,"ARG_OF_PERICENTER":216.8886,"MEAN_ANOMALY":310.345,"EPHEMERIS_TYPE":0,"CLASSIFICATION_TYPE":"U","NORAD_CAT_ID":46114,"ELEMENT_SET_NO":999,"REV_AT_EPOCH":2022,"BSTAR":0,"MEAN_MOTION_DOT":2.0e-7,"MEAN_MOTION_DDOT":0},{"OBJECT_NAME":"COSMOS 2547 (705K)","OBJECT_ID":"2020-075A","EPOCH":"2026-03-02T10:07:23.038752","MEAN_MOTION":2.13100073,"ECCENTRICITY":0.00067076,"INCLINATION":64.5998,"RA_OF_ASC_NODE":196.0353,"ARG_OF_PERICENTER":229.5207,"MEAN_ANOMALY":130.3796,"EPHEMERIS_TYPE":0,"CLASSIFICATION_TYPE":"U","NORAD_CAT_ID":46805,"ELEMENT_SET_NO":999,"REV_AT_EPOCH":4163,"BSTAR":0,"MEAN_MOTION_DOT":-1.2e-7,"MEAN_MOTION_DDOT":0},{"OBJECT_NAME":"GPS BIII-4  (PRN 14)","OBJECT_ID":"2020-078A","EPOCH":"2026-03-02T19:23:28.671936","MEAN_MOTION":2.00565488,"ECCENTRICITY":0.00681491,"INCLINATION":54.002,"RA_OF_ASC_NODE":215.0904,"ARG_OF_PERICENTER":204.2599,"MEAN_ANOMALY":325.6195,"EPHEMERIS_TYPE":0,"CLASSIFICATION_TYPE":"U","NORAD_CAT_ID":46826,"ELEMENT_SET_NO":999,"REV_AT_EPOCH":3937,"BSTAR":0,"MEAN_MOTION_DOT":-1.0e-7,"MEAN_MOTION_DDOT":0},{"OBJECT_NAME":"QZS-1R (QZSS/PRN 196)","OBJECT_ID":"2021-096A","EPOCH":"2026-03-01T09:13:38.436096","MEAN_MOTION":1.00291836,"ECCENTRICITY":0.07470272,"INCLINATION":37.2374,"RA_OF_ASC_NODE":81.1754,"ARG_OF_PERICENTER":269.6443,"MEAN_ANOMALY":80.6815,"EPHEMERIS_TYPE":0,"CLASSIFICATION_TYPE":"U","NORAD_CAT_ID":49336,"ELEMENT_SET_NO":999,"REV_AT_EPOCH":1592,"BSTAR":0,"MEAN_MOTION_DOT":-2.59e-6,"MEAN_MOTION_DDOT":0},{"OBJECT_NAME":"GSAT0223 (GALILEO 27)","OBJECT_ID":"2021-116A","EPOCH":"2026-02-17T00:57:26.434656","MEAN_MOTION":1.70475508,"ECCENTRICITY":0.00028659,"INCLINATION":57.2005,"RA_OF_ASC_NODE":344.9238,"ARG_OF_PERICENTER":278.195,"MEAN_ANOMALY":264.6358,"EPHEMERIS_TYPE":0,"CLASSIFICATION_TYPE":"U","NORAD_CAT_ID":49809,"ELEMENT_SET_NO":999,"REV_AT_EPOCH":2613,"BSTAR":0,"MEAN_MOTION_DOT":-7.8e-7,"MEAN_MOTION_DDOT":0},{"OBJECT_NAME":"GSAT0224 (GALILEO 28)","OBJECT_ID":"2021-116B","EPOCH":"2026-02-23T21:29:03.517440","MEAN_MOTION":1.70475193,"ECCENTRICITY":0.00021827,"INCLINATION":57.1984,"RA_OF_ASC_NODE":344.7369,"ARG_OF_PERICENTER":291.9502,"MEAN_ANOMALY":250.7131,"EPHEMERIS_TYPE":0,"CLASSIFICATION_TYPE":"U","NORAD_CAT_ID":49810,"ELEMENT_SET_NO":999,"REV_AT_EPOCH":2627,"BSTAR":0,"MEAN_MOTION_DOT":-8.8e-7,"MEAN_MOTION_DDOT":0},{"OBJECT_NAME":"COSMOS 2557 (706K)","OBJECT_ID":"2022-075A","EPOCH":"2026-03-01T15:33:40.030272","MEAN_MOTION":2.13101625,"ECCENTRICITY":0.00116705,"INCLINATION":64.3609,"RA_OF_ASC_NODE":318.2759,"ARG_OF_PERICENTER":283.4611,"MEAN_ANOMALY":76.4636,"EPHEMERIS_TYPE":0,"CLASSIFICATION_TYPE":"U","NORAD_CAT_ID":52984,"ELEMENT_SET_NO":999,"REV_AT_EPOCH":2842,"BSTAR":0,"MEAN_MOTION_DOT":-4.9e-7,"MEAN_MOTION_DDOT":0},{"OBJECT_NAME":"COSMOS 2559 (707K)","OBJECT_ID":"2022-130A","EPOCH":"2026-02-28T23:57:48.913920","MEAN_MOTION":2.13101169,"ECCENTRICITY":0.00106014,"INCLINATION":64.3338,"RA_OF_ASC_NODE":318.3857,"ARG_OF_PERICENTER":182.1671,"MEAN_ANOMALY":177.8809,"EPHEMERIS_TYPE":0,"CLASSIFICATION_TYPE":"U","NORAD_CAT_ID":54031,"ELEMENT_SET_NO":999,"REV_AT_EPOCH":2638,"BSTAR":0,"MEAN_MOTION_DOT":-4.9e-7,"MEAN_MOTION_DDOT":0},{"OBJECT_NAME":"GPS BIII-6  (PRN 28)","OBJECT_ID":"2023-009A","EPOCH":"2026-02-28T18:21:27.213984","MEAN_MOTION":2.00549258,"ECCENTRICITY":0.00047588,"INCLINATION":55.1093,"RA_OF_ASC_NODE":152.7809,"ARG_OF_PERICENTER":333.1698,"MEAN_ANOMALY":25.1517,"EPHEMERIS_TYPE":0,"CLASSIFICATION_TYPE":"U","NORAD_CAT_ID":55268,"ELEMENT_SET_NO":999,"REV_AT_EPOCH":2306,"BSTAR":0,"MEAN_MOTION_DOT":-2.8e-7,"MEAN_MOTION_DDOT":0}]
